[
    {
        "Altitude(m)": 612502.2060861515,
        "Argument of Periapsis(deg)": 0.0,
        "Eccentricity": 0.0,
        "Inclination(deg)": 60.0,
        "Latitude(deg)": -28.13601028320373,
        "Longitude(deg)": 162.14819627916955,
        "Mean Anomaly(deg)": -32.72729999999996,
        "RAAN(deg)": 280.0,
        "Satellite Name": "Test1 1252",
        "Satellite Number": 1252,
        "Semi-Major Axis(m)": 6980739.136638005,
        "Time(s)": 0
    },
    {
        "Altitude(m)": 612308.6540238403,
        "Argument of Periapsis(deg)": 0.00010418945913296404,
        "Eccentricity": 0.0,
        "Inclination(deg)": 60.0,
        "Latitude(deg)": -27.623066209396377,
        "Longitude(deg)": 162.50167168604364,
        "Mean Anomaly(deg)": -32.1071938545381,
        "RAAN(deg)": 279.99957995086027,
        "Satellite Name": "Test1 1252",
        "Satellite Number": 1252,
        "Semi-Major Axis(m)": 6980739.136638005,
        "Time(s)": 10
    }
]